#cP2023  9 27  0  0  0.00000000      96 ORBIT IGS20 HLM  IGS
## 2281 259200.00000000   900.00000000 60214 0.0000000000000
+   32   G01G02G03G04G05G06G07G08G09G10G11G12G13G14G15G16G17
+        G18G19G20G21G22G23G24G25G26G27G28G29G30G31G32  0  0
+          0  0  0  0  0  0  0  0  0  0  0  0  0  0  0  0  0
+          0  0  0  0  0  0  0  0  0  0  0  0  0  0  0  0  0
+          0  0  0  0  0  0  0  0  0  0  0  0  0  0  0  0  0
++         2  2  2  2  2  2  2  2  2  2  2  2  2  2  2  2  2
++         2  2  2  2  2  2  3  2  2  2  3  2  2  2  2  0  0
++         0  0  0  0  0  0  0  0  0  0  0  0  0  0  0  0  0
++         0  0  0  0  0  0  0  0  0  0  0  0  0  0  0  0  0
++         0  0  0  0  0  0  0  0  0  0  0  0  0  0  0  0  0
%c G  cc GPS ccc cccc cccc cccc cccc ccccc ccccc ccccc ccccc
%c cc cc ccc ccc cccc cccc cccc cccc ccccc ccccc ccccc ccccc
%f  1.2500000  1.025000000  0.00000000000  0.000000000000000
%f  0.0000000  0.000000000  0.00000000000  0.000000000000000
%i    0    0    0    0      0      0      0      0         0
%i    0    0    0    0      0      0      0      0         0
/* RAPID ORBIT COMBINATION FROM WEIGHTED AVERAGE OF:        
/* cod emr esa gfz grg jgx jpl ngs sio usn whu              
/* REFERENCED TO IGS TIME (IGST) AND TO WEIGHTED MEAN POLE: 
/* PCV:IGS20      OL/AL:FES2014b NONE     Y  ORB:CMB CLK:CMB
*  2023  9 27 10 30  0.00000000
PG01  21403.724641  15134.322046  -5626.001557    164.607733 10  6  6 105       
PG02  18179.586184  15480.676372 -11314.862038   -549.027326 10  7  6  93       
PG03  12123.394556  16980.580222  16351.447641   -112.270526  5  4  3  60       
PG04  16365.857376   6198.951938  20022.471704    168.051471  5  6  4  81       
PG05  -5721.839241 -25605.033055  -3972.620191   -144.311902  7  1  3  80       
PG06  11539.589989 -10167.576125  21732.822355    542.442034  4  5  5  91       
PG07  24457.234464   4442.909550  -9527.179093     55.899409  8  6  5 105       
PG08   7412.857120  13501.485831 -21693.119289   -144.311832  6  3  4 109       
PG09  21930.049623  -2826.010286  14669.128059    -48.402487  5  5     60       
PG10 -11243.569870  15225.832226 -18311.005936    -55.052326  6     3  65       
PG11  -2053.306442 -17109.824463  20239.587033   -388.554895  6  4  6 105       
PG12  -9687.147186 -20245.862556  13988.249945   -429.463499  5  5  5  94       
PG13   2947.069716 -16946.056574 -20375.683959    577.411137  7  6  5  88       
PG14  13594.339692 -11666.667906 -19532.927046    197.223022  4  4  5  98       
PG15 -10037.266988 -12535.484526 -21636.578092     81.527912  7  4  2  93       
PG16   -711.767357  26293.613794    296.127232   -448.004639  6  2  5  84       
PG17  22817.198235 -13714.499663    440.961240    723.863647  6  5  6  75       
PG18 -23507.402438  -2714.923655 -12237.162404   -430.772348  8  5  5 108       
PG19  19149.316622 -16229.084511   7933.874088    377.145861  5  6  7  75       
PG20   -102.261510 -25348.117639   8286.514011    409.756218  6  2  4  82       
PG21  16217.585432  16321.861075 -13501.299656    148.045573  7  5  5  96       
PG22  10838.897592 -18864.110842 -14963.081762    113.822477  5  2  3  95       
PG23 -14807.956091   1608.337274 -21982.688979     74.237081  8  6  6  93       
PG24 -19392.280680 -15546.078852 -10315.642079   -330.883908 10  9  7 104       
PG25 -15156.727176  -7011.587572  20393.182274    469.886462     7  4  80       
PG26  -5102.025626  23284.235472  11215.073912    226.384941  6  5  6  87       
PG27  -5700.622255  18831.739976 -17894.784815    -46.194379  6  3  2  94       
PG28 -13345.624623   9852.577280  20721.388365    -15.914875  7  9  7  91       
PG29 -22190.288342   1205.686068  14580.497214   -609.680653  7  7  5 113       
PG30  19677.905896  -4441.156933 -17286.791089   -484.013012  7  6  6 103       
PG31  -3953.568847  14969.125917  21352.395037   -223.932934  4  6  4  65       
PG32 -20123.332930  16824.585955   3566.177915   -564.331385  6  4  3 101       
*  2023  9 27 10 45  0.00000000
PG01  20669.405510  14932.379263  -8373.903643    164.607068 10  5  6 112       
PG02  16706.187525  15164.886684 -13651.814765   -549.023435  9  6  7  98       
PG03  12160.097684  18754.922958  14281.970685   -112.251334  6  5  3  81       
PG04  14463.908859   7566.263482  20982.849670    168.061389  4  5  3  96       
PG05  -5523.432762 -25909.434564  -1117.419209   -144.313286  6     3  90       
PG06  13716.147264  -9113.497503  20926.181277    542.435316  4  5  5  90       
PG07  25261.316831   5066.219935  -6932.179338     55.889929  8  6  4 110       
PG08   5437.213343  14949.031372 -21288.606744   -144.313551  6  3  5 102       
PG09  20601.922772  -1591.278789  16632.365138    -48.392982  5  5     81       
PG10 -11588.313262  13031.350825 -19748.408472    -55.053545  6     4  60       
PG11     84.482766 -16102.035837  21146.037894   -388.571032  6  4  6 102       
PG12  -9534.150995 -21757.361970  11685.562282   -429.467360  5  5  5  99       
PG13   4963.701188 -17890.331284 -19107.248925    577.415157  8  6  5  84       
PG14  13874.523996  -9374.073488 -20558.030887    197.233164  3  4  6 101       
PG15  -8306.360941 -14153.989791 -21342.679607     81.531402  7  4  3  91       
PG16   -998.260774  26062.537786   3175.453078   -447.999846  6  2  5  75       
PG17  22795.954613 -13446.981771  -2428.424616    723.863707  6  5  6  92       
PG18 -24564.393651  -3407.133093  -9750.746806   -430.783364  8  5  6 105       
PG19  19946.728679 -16404.572737   5170.644912    377.150259  5  6  7  92       
PG20    423.456564 -24369.195226  10818.799564    409.754344  6  1  4  83       
PG21  14550.850016  15897.555934 -15578.118922    148.044106  7  5  5  90       
PG22  11023.595565 -16977.118850 -16880.187960    113.815921  4  3  3 103       
PG23 -15127.889797   -874.036259 -21821.266945     74.242006  8  6  6  79       
PG24 -18127.255081 -15366.494231 -12664.642600   -330.893159 10  9  7 105       
PG25 -15327.539689  -9340.750145  19344.413031    469.888213     7  4  95       
PG26  -5646.248659  21907.442762  13504.565547    226.383089  6  5  5  90       
PG27  -7346.574587  19822.079527 -16072.295689    -46.199839  6  3  1  97       
PG28 -15452.955598   8889.971753  19666.662505    -15.920212  7  9  7  81       
PG29 -20743.560959    149.998253  16603.228656   -609.681045  7  7  5 112       
PG30  21319.278874  -3475.563234 -15504.879943   -484.009817  8  7  7 109       
PG31  -6225.418143  13925.760598  21551.756194   -223.933295  4  6  4  85       
PG32 -20466.393237  16740.742404    712.943019   -564.336567  6  4  4 110       
*  2023  9 27 11  0  0.00000000
PG01  19647.646468  14660.697614 -10982.132474    164.606390  9  5  7 113       
PG02  14969.724361  14858.337558 -15748.711896   -549.019241  8  5  7  88       
PG03  12255.400791  20276.852594  11965.725500   -112.232189  6  5  4  79       
PG04  12565.432832   9085.900225  21583.160330    168.071263  2  5  3  88       
PG05  -5272.915060 -25906.032318   1757.093403   -144.314910  5     4  87       
PG06  15844.857539  -8225.780970  19762.231100    542.428561  4  4  5  85       
PG07  25816.464169   5535.904416  -4219.420151     55.880619  9  5  4 106       
PG08   3585.612088  16455.305584 -20518.409221   -144.313899  6  3  5  97       
PG09  19181.613950   -155.239071  18308.256841    -48.383463  6  5     86       
PG10 -12074.673008  10717.519099 -20837.660424    -55.054661  6  1  4  55       
PG11   2348.279612 -15175.986833  21689.396076   -388.587170  6  5  6 102       
PG12  -9437.284258 -23000.296721   9179.758416   -429.471241  4  4  6  92       
PG13   6791.215103 -18858.806232 -17513.037054    577.419111  8  6  5  64       
PG14  14280.541011  -7004.558654 -21227.558653    197.243283  3  5  6  91       
PG15  -6689.624814 -15819.245075 -20696.145631     81.534934  7  4  4  85       
PG16  -1322.118971  25519.779284   5998.297601   -447.994487  6  3  5  64       
PG17  22528.514560 -12987.094612  -5256.049931    723.863777  7  5  6  76       
PG18 -25387.932111  -3932.271945  -7098.149820   -430.794339  8  6  7 102       
PG19  20463.169248 -16447.102720   2316.147457    377.155550  6  5  7  88       
PG20   1087.702920 -23158.373562  13167.089385    409.752883  6     4  79       
PG21  12643.197356  15503.607672 -17387.752958    148.043533  6  4  5  92       
PG22  11322.166191 -14895.648863 -18500.024402    113.809608  4  3  3  91       
PG23 -15574.730683  -3294.742237 -21284.646196     74.246979  8  7  6  80       
PG24 -16616.485859 -15181.355588 -14804.481942   -330.902404 10  9  7  75       
PG25 -15591.207934 -11517.505836  17956.264583    469.889918     7  4  76       
PG26  -6310.084361  20317.610562  15555.992509    226.381273  6  6  5  80       
PG27  -8770.866400  20757.766586 -13973.104125    -46.205313  7  3     88       
PG28 -17476.322337   8083.659028  18272.917021    -15.925593  6  9  8  80       
PG29 -19180.977180  -1105.400395  18340.559274   -609.681274  7  7  5  98       
PG30  22802.622736  -2670.583300 -13457.001509   -484.006637  8  7  7 106       
PG31  -8544.350239  12999.825782  21373.676163   -223.933447  5  6  3  80       
PG32 -20563.990036  16465.802383  -2152.697989   -564.341719  6  3  4 102       
EOF
